[{"OBJECT_NAME":"ONEWEB-0312","OBJECT_ID":"2021-075Z","EPOCH":"2026-04-02T06:01:04.237536","MEAN_MOTION":13.17650012,"ECCENTRICITY":0.0001645,"INCLINATION":87.9181,"RA_OF_ASC_NODE":20.9549,"ARG_OF_PERICENTER":67.6039,"MEAN_ANOMALY":292.5266,"EPHEMERIS_TYPE":0,"CLASSIFICATION_TYPE":"U","NORAD_CAT_ID":49098,"ELEMENT_SET_NO":999,"REV_AT_EPOCH":22360,"BSTAR":0.00015325,"MEAN_MOTION_DOT":7.2e-07,"MEAN_MOTION_DDOT":0.0},{"OBJECT_NAME":"ONEWEB-0313","OBJECT_ID":"2021-075AA","EPOCH":"2026-04-02T06:08:09.524256","MEAN_MOTION":13.17650667,"ECCENTRICITY":0.0001718,"INCLINATION":87.9186,"RA_OF_ASC_NODE":20.9604,"ARG_OF_PERICENTER":77.2807,"MEAN_ANOMALY":282.8517,"EPHEMERIS_TYPE":0,"CLASSIFICATION_TYPE":"U","NORAD_CAT_ID":49099,"ELEMENT_SET_NO":999,"REV_AT_EPOCH":22359,"BSTAR":0.00016103000000000002,"MEAN_MOTION_DOT":7.5e-07,"MEAN_MOTION_DDOT":0.0},{"OBJECT_NAME":"ONEWEB-0314","OBJECT_ID":"2021-075AB","EPOCH":"2026-04-02T07:09:05.818464","MEAN_MOTION":13.17650631,"ECCENTRICITY":0.0001615,"INCLINATION":87.9191,"RA_OF_ASC_NODE":20.9165,"ARG_OF_PERICENTER":67.317,"MEAN_ANOMALY":292.8133,"EPHEMERIS_TYPE":0,"CLASSIFICATION_TYPE":"U","NORAD_CAT_ID":49100,"ELEMENT_SET_NO":999,"REV_AT_EPOCH":22357,"BSTAR":0.00010211000000000001,"MEAN_MOTION_DOT":5.3e-07,"MEAN_MOTION_DDOT":0.0},{"OBJECT_NAME":"ONEWEB-0315","OBJECT_ID":"2021-075AC","EPOCH":"2026-04-02T04:48:04.138560","MEAN_MOTION":13.12445156,"ECCENTRICITY":0.0001437,"INCLINATION":87.902,"RA_OF_ASC_NODE":5.7315,"ARG_OF_PERICENTER":84.0695,"MEAN_ANOMALY":276.0597,"EPHEMERIS_TYPE":0,"CLASSIFICATION_TYPE":"U","NORAD_CAT_ID":49101,"ELEMENT_SET_NO":999,"REV_AT_EPOCH":22520,"BSTAR":0.0013815,"MEAN_MOTION_DOT":5.1e-06,"MEAN_MOTION_DDOT":0.0},{"OBJECT_NAME":"ONEWEB-0316","OBJECT_ID":"2021-075AD","EPOCH":"2026-04-02T04:57:20.955456","MEAN_MOTION":13.18687585,"ECCENTRICITY":0.0001684,"INCLINATION":87.9235,"RA_OF_ASC_NODE":350.5627,"ARG_OF_PERICENTER":79.7542,"MEAN_ANOMALY":280.378,"EPHEMERIS_TYPE":0,"CLASSIFICATION_TYPE":"U","NORAD_CAT_ID":49102,"ELEMENT_SET_NO":999,"REV_AT_EPOCH":22719,"BSTAR":0.00020498,"MEAN_MOTION_DOT":9.4e-07,"MEAN_MOTION_DDOT":0.0},{"OBJECT_NAME":"ONEWEB-0317","OBJECT_ID":"2021-075AE","EPOCH":"2026-04-02T06:42:43.425792","MEAN_MOTION":13.12445721,"ECCENTRICITY":0.0002513,"INCLINATION":87.9019,"RA_OF_ASC_NODE":5.7385,"ARG_OF_PERICENTER":72.2551,"MEAN_ANOMALY":287.8852,"EPHEMERIS_TYPE":0,"CLASSIFICATION_TYPE":"U","NORAD_CAT_ID":49103,"ELEMENT_SET_NO":999,"REV_AT_EPOCH":22523,"BSTAR":0.0012354,"MEAN_MOTION_DOT":4.57e-06,"MEAN_MOTION_DDOT":0.0},{"OBJECT_NAME":"ONEWEB-0318","OBJECT_ID":"2021-075AF","EPOCH":"2026-04-02T06:41:51.728352","MEAN_MOTION":13.18688282,"ECCENTRICITY":0.0001496,"INCLINATION":87.9243,"RA_OF_ASC_NODE":350.5431,"ARG_OF_PERICENTER":81.8258,"MEAN_ANOMALY":278.3044,"EPHEMERIS_TYPE":0,"CLASSIFICATION_TYPE":"U","NORAD_CAT_ID":49104,"ELEMENT_SET_NO":999,"REV_AT_EPOCH":22716,"BSTAR":0.00013714,"MEAN_MOTION_DOT":6.7e-07,"MEAN_MOTION_DDOT":0.0},{"OBJECT_NAME":"ONEWEB-0319","OBJECT_ID":"2021-075AG","EPOCH":"2026-04-02T07:30:57.525984","MEAN_MOTION":13.17651222,"ECCENTRICITY":0.0001293,"INCLINATION":87.9181,"RA_OF_ASC_NODE":20.9364,"ARG_OF_PERICENTER":87.8172,"MEAN_ANOMALY":272.3107,"EPHEMERIS_TYPE":0,"CLASSIFICATION_TYPE":"U","NORAD_CAT_ID":49105,"ELEMENT_SET_NO":999,"REV_AT_EPOCH":22361,"BSTAR":0.00010197,"MEAN_MOTION_DOT":5.2e-07,"MEAN_MOTION_DDOT":0.0},{"OBJECT_NAME":"ONEWEB-0323","OBJECT_ID":"2021-075AH","EPOCH":"2026-04-02T06:15:54.453024","MEAN_MOTION":13.12446071,"ECCENTRICITY":0.0001196,"INCLINATION":87.9021,"RA_OF_ASC_NODE":5.7237,"ARG_OF_PERICENTER":79.3056,"MEAN_ANOMALY":280.8207,"EPHEMERIS_TYPE":0,"CLASSIFICATION_TYPE":"U","NORAD_CAT_ID":49106,"ELEMENT_SET_NO":999,"REV_AT_EPOCH":22459,"BSTAR":-0.00029420000000000005,"MEAN_MOTION_DOT":-9.3e-07,"MEAN_MOTION_DDOT":0.0},{"OBJECT_NAME":"ONEWEB-0329","OBJECT_ID":"2021-075AJ","EPOCH":"2026-04-02T05:53:46.810752","MEAN_MOTION":13.17649558,"ECCENTRICITY":0.0001715,"INCLINATION":87.9182,"RA_OF_ASC_NODE":20.9504,"ARG_OF_PERICENTER":74.3005,"MEAN_ANOMALY":285.8315,"EPHEMERIS_TYPE":0,"CLASSIFICATION_TYPE":"U","NORAD_CAT_ID":49107,"ELEMENT_SET_NO":999,"REV_AT_EPOCH":22358,"BSTAR":0.00020753,"MEAN_MOTION_DOT":9.3e-07,"MEAN_MOTION_DDOT":0.0},{"OBJECT_NAME":"ONEWEB-0330","OBJECT_ID":"2021-075AK","EPOCH":"2026-04-02T06:27:59.513184","MEAN_MOTION":13.17648185,"ECCENTRICITY":0.0001859,"INCLINATION":87.9187,"RA_OF_ASC_NODE":20.9646,"ARG_OF_PERICENTER":71.4372,"MEAN_ANOMALY":288.6961,"EPHEMERIS_TYPE":0,"CLASSIFICATION_TYPE":"U","NORAD_CAT_ID":49108,"ELEMENT_SET_NO":999,"REV_AT_EPOCH":22362,"BSTAR":-0.00016564000000000002,"MEAN_MOTION_DOT":-5.1e-07,"MEAN_MOTION_DDOT":0.0},{"OBJECT_NAME":"ONEWEB-0292","OBJECT_ID":"2021-083A","EPOCH":"2026-04-02T05:11:44.964960","MEAN_MOTION":13.13469419,"ECCENTRICITY":0.0001569,"INCLINATION":87.8996,"RA_OF_ASC_NODE":335.3718,"ARG_OF_PERICENTER":83.2724,"MEAN_ANOMALY":276.8583,"EPHEMERIS_TYPE":0,"CLASSIFICATION_TYPE":"U","NORAD_CAT_ID":49186,"ELEMENT_SET_NO":999,"REV_AT_EPOCH":22095,"BSTAR":0.00041726999999999997,"MEAN_MOTION_DOT":1.65e-06,"MEAN_MOTION_DDOT":0.0},{"OBJECT_NAME":"ONEWEB-0303","OBJECT_ID":"2021-083B","EPOCH":"2026-04-02T06:37:06.782016","MEAN_MOTION":13.18688374,"ECCENTRICITY":0.0001582,"INCLINATION":87.9238,"RA_OF_ASC_NODE":350.5464,"ARG_OF_PERICENTER":79.7096,"MEAN_ANOMALY":280.4215,"EPHEMERIS_TYPE":0,"CLASSIFICATION_TYPE":"U","NORAD_CAT_ID":49187,"ELEMENT_SET_NO":999,"REV_AT_EPOCH":21997,"BSTAR":6.5694e-05,"MEAN_MOTION_DOT":3.9e-07,"MEAN_MOTION_DDOT":0.0},{"OBJECT_NAME":"ONEWEB-0306","OBJECT_ID":"2021-083C","EPOCH":"2026-04-02T06:22:51.997440","MEAN_MOTION":13.1868607,"ECCENTRICITY":0.0001973,"INCLINATION":87.9244,"RA_OF_ASC_NODE":350.5321,"ARG_OF_PERICENTER":77.3991,"MEAN_ANOMALY":282.7362,"EPHEMERIS_TYPE":0,"CLASSIFICATION_TYPE":"U","NORAD_CAT_ID":49188,"ELEMENT_SET_NO":999,"REV_AT_EPOCH":22001,"BSTAR":-0.000567,"MEAN_MOTION_DOT":-2.11e-06,"MEAN_MOTION_DDOT":0.0},{"OBJECT_NAME":"ONEWEB-0307","OBJECT_ID":"2021-083D","EPOCH":"2026-04-02T03:13:30.171936","MEAN_MOTION":13.13470953,"ECCENTRICITY":0.0001549,"INCLINATION":87.9007,"RA_OF_ASC_NODE":335.377,"ARG_OF_PERICENTER":78.475,"MEAN_ANOMALY":281.6553,"EPHEMERIS_TYPE":0,"CLASSIFICATION_TYPE":"U","NORAD_CAT_ID":49189,"ELEMENT_SET_NO":999,"REV_AT_EPOCH":22094,"BSTAR":0.00068965,"MEAN_MOTION_DOT":2.65e-06,"MEAN_MOTION_DDOT":0.0},{"OBJECT_NAME":"ONEWEB-0320","OBJECT_ID":"2021-083E","EPOCH":"2026-04-01T05:27:15.051456","MEAN_MOTION":13.18212209,"ECCENTRICITY":0.0001032,"INCLINATION":87.9233,"RA_OF_ASC_NODE":350.7653,"ARG_OF_PERICENTER":116.713,"MEAN_ANOMALY":243.4108,"EPHEMERIS_TYPE":0,"CLASSIFICATION_TYPE":"U","NORAD_CAT_ID":49190,"ELEMENT_SET_NO":999,"REV_AT_EPOCH":21983,"BSTAR":0.025822,"MEAN_MOTION_DOT":0.00010133,"MEAN_MOTION_DDOT":0.0}]