ONEWEB-0312             
1 49098U 21075Z   26092.25074349  .00000072  00000+0  15325-3 0  9995
2 49098  87.9181  20.9549 0001645  67.6039 292.5266 13.17650012223603
ONEWEB-0313             
1 49099U 21075AA  26092.25566579  .00000075  00000+0  16103-3 0  9995
2 49099  87.9186  20.9604 0001718  77.2807 282.8517 13.17650667223597
ONEWEB-0314             
1 49100U 21075AB  26092.29798401  .00000053  00000+0  10211-3 0  9993
2 49100  87.9191  20.9165 0001615  67.3170 292.8133 13.17650631223571
ONEWEB-0315             
1 49101U 21075AC  26092.20004790  .00000510  00000+0  13815-2 0  9996
2 49101  87.9020   5.7315 0001437  84.0695 276.0597 13.12445156225200
ONEWEB-0316             
1 49102U 21075AD  26092.20649254  .00000094  00000+0  20498-3 0  9990
2 49102  87.9235 350.5627 0001684  79.7542 280.3780 13.18687585227194
ONEWEB-0317             
1 49103U 21075AE  26092.27966928  .00000457  00000+0  12354-2 0  9992
2 49103  87.9019   5.7385 0002513  72.2551 287.8852 13.12445721225238
ONEWEB-0318             
1 49104U 21075AF  26092.27907093  .00000067  00000+0  13714-3 0  9990
2 49104  87.9243 350.5431 0001496  81.8258 278.3044 13.18688282227169
ONEWEB-0319             
1 49105U 21075AG  26092.31316581  .00000052  00000+0  10197-3 0  9998
2 49105  87.9181  20.9364 0001293  87.8172 272.3107 13.17651222223613
ONEWEB-0323             
1 49106U 21075AH  26092.26104691 -.00000093  00000+0 -29420-3 0  9996
2 49106  87.9021   5.7237 0001196  79.3056 280.8207 13.12446071224598
ONEWEB-0329             
1 49107U 21075AJ  26092.24568068  .00000093  00000+0  20753-3 0  9995
2 49107  87.9182  20.9504 0001715  74.3005 285.8315 13.17649558223582
ONEWEB-0330             
1 49108U 21075AK  26092.26943881 -.00000051  00000+0 -16564-3 0  9999
2 49108  87.9187  20.9646 0001859  71.4372 288.6961 13.17648185223627
ONEWEB-0292             
1 49186U 21083A   26092.21649265  .00000165  00000+0  41727-3 0  9991
2 49186  87.8996 335.3718 0001569  83.2724 276.8583 13.13469419220952
ONEWEB-0303             
1 49187U 21083B   26092.27577294  .00000039  00000+0  65694-4 0  9990
2 49187  87.9238 350.5464 0001582  79.7096 280.4215 13.18688374219978
ONEWEB-0306             
1 49188U 21083C   26092.26587960 -.00000211  00000+0 -56700-3 0  9992
2 49188  87.9244 350.5321 0001973  77.3991 282.7362 13.18686070220016
ONEWEB-0307             
1 49189U 21083D   26092.13437699  .00000265  00000+0  68965-3 0  9995
2 49189  87.9007 335.3770 0001549  78.4750 281.6553 13.13470953220945
ONEWEB-0320             
1 49190U 21083E   26091.22725754  .00010133  00000+0  25822-1 0  9996
2 49190  87.9233 350.7653 0001032 116.7130 243.4108 13.18212209219835
